{"type": "FeatureCollection", "features": [ {"type": "Feature", "properties": {"norad_id": 41549, "name": "GSAT0211 (GALILEO 14)", "group": "gnss", "lat": 12.344341301085333, "lon": 38.30274283313923, "alt_km": 23231.36079809622, "timestamp": "2025-12-04T07:39:36.382876+00:00", "meta": {"OBJECT_NAME": "GSAT0211 (GALILEO 14)", "OBJECT_ID": "2016-030A", "EPOCH": "2025-12-01T16:54:04.942368", "MEAN_MOTION": 1.70472896, "ECCENTRICITY": 0.00038995, "INCLINATION": 55.1563, "RA_OF_ASC_NODE": 227.1275, "ARG_OF_PERICENTER": 10.5053, "MEAN_ANOMALY": 349.5828, "EPHEMERIS_TYPE": 0, "CLASSIFICATION_TYPE": "U", "NORAD_CAT_ID": 41549, "ELEMENT_SET_NO": 999, "REV_AT_EPOCH": 5930, "BSTAR": 0, "MEAN_MOTION_DOT": 3.3e-07, "MEAN_MOTION_DDOT": 0}, "tle": {"line1": "1 41549U 16030A   25335.70422387  .00000033  00000+0  00000+0 0  9998", "line2": "2 41549  55.1563 227.1275 0003899  10.5053 349.5828  1.70472896 59309"}}, "geometry": {"type": "Point", "coordinates": [38.30274283313923, 12.344341301085333]}}, {"type": "Feature", "properties": {"norad_id": 41550, "name": "GSAT0210 (GALILEO 13)", "group": "gnss", "lat": 5.611884981607231, "lon": -129.02264271216424, "alt_km": 23223.873708803338, "timestamp": "2025-12-04T07:39:36.382888+00:00", "meta": {"OBJECT_NAME": "GSAT0210 (GALILEO 13)", "OBJECT_ID": "2016-030B", "EPOCH": "2025-12-03T03:14:10.364352", "MEAN_MOTION": 1.70473449, "ECCENTRICITY": 0.00012228, "INCLINATION": 55.1551, "RA_OF_ASC_NODE": 227.0861, "ARG_OF_PERICENTER": 241.4534, "MEAN_ANOMALY": 118.6225, "EPHEMERIS_TYPE": 0, "CLASSIFICATION_TYPE": "U", "NORAD_CAT_ID": 41550, "ELEMENT_SET_NO": 999, "REV_AT_EPOCH": 5932, "BSTAR": 0, "MEAN_MOTION_DOT": 3.9e-07, "MEAN_MOTION_DDOT": 0}, "tle": {"line1": "1 41550U 16030B   25337.13484218  .00000039  00000+0  00000+0 0  9996", "line2": "2 41550  55.1551 227.0861 0001222 241.4534 118.6225  1.70473449 59328"}}, "geometry": {"type": "Point", "coordinates": [-129.02264271216424, 5.611884981607231]}}, {"type": "Feature", "properties": {"norad_id": 41586, "name": "BEIDOU-2 G7 (C03)", "group": "gnss", "lat": -1.360601259507212, "lon": -61.28539092530421, "alt_km": 35799.15974736032, "timestamp": "2025-12-04T07:39:36.382898+00:00", "meta": {"OBJECT_NAME": "BEIDOU-2 G7 (C03)", "OBJECT_ID": "2016-037A", "EPOCH": "2025-12-03T19:25:06.201984", "MEAN_MOTION": 1.00271395, "ECCENTRICITY": 0.00043865, "INCLINATION": 1.7336, "RA_OF_ASC_NODE": 67.6984, "ARG_OF_PERICENTER": 4.1798, "MEAN_ANOMALY": 42.7772, "EPHEMERIS_TYPE": 0, "CLASSIFICATION_TYPE": "U", "NORAD_CAT_ID": 41586, "ELEMENT_SET_NO": 999, "REV_AT_EPOCH": 493, "BSTAR": 0, "MEAN_MOTION_DOT": -3.37e-06, "MEAN_MOTION_DDOT": 0}, "tle": {"line1": "1 41586U 16037A   25337.80909956 -.00000337  00000+0  00000+0 0  9999", "line2": "2 41586   1.7336  67.6984 0004386   4.1798  42.7772  1.00271395  4939"}}, "geometry": {"type": "Point", "coordinates": [-61.28539092530421, -1.360601259507212]}}, {"type": "Feature", "properties": {"norad_id": 41589, "name": "EUTELSAT 117 WEST B (WAAS/PRN 131)", "group": "gnss", "lat": -0.017720067403016092, "lon": 71.26525159464865, "alt_km": 35786.406786047824, "timestamp": "2025-12-04T07:39:36.382908+00:00", "meta": {"OBJECT_NAME": "EUTELSAT 117 WEST B (WAAS/PRN 131)", "OBJECT_ID": "2016-038B", "EPOCH": "2025-12-03T16:37:22.267776", "MEAN_MOTION": 1.002675, "ECCENTRICITY": 2.71e-05, "INCLINATION": 0.0072, "RA_OF_ASC_NODE": 146.0291, "ARG_OF_PERICENTER": 327.1169, "MEAN_ANOMALY": 91.9765, "EPHEMERIS_TYPE": 0, "CLASSIFICATION_TYPE": "U", "NORAD_CAT_ID": 41589, "ELEMENT_SET_NO": 999, "REV_AT_EPOCH": 3470, "BSTAR": 0, "MEAN_MOTION_DOT": 7e-08, "MEAN_MOTION_DDOT": 0}, "tle": {"line1": "1 41589U 16038B   25337.69261884  .00000007  00000+0  00000+0 0  9994", "line2": "2 41589   0.0072 146.0291 0000271 327.1169  91.9765  1.00267500 34702"}}, "geometry": {"type": "Point", "coordinates": [71.26525159464865, -0.017720067403016092]}}, {"type": "Feature", "properties": {"norad_id": 41859, "name": "GSAT0207 (GALILEO 15)", "group": "gnss", "lat": -13.178146453364537, "lon": -64.23310043794307, "alt_km": 23228.159592369986, "timestamp": "2025-12-04T07:39:36.382919+00:00", "meta": {"OBJECT_NAME": "GSAT0207 (GALILEO 15)", "OBJECT_ID": "2016-069A", "EPOCH": "2025-12-03T09:54:53.472960", "MEAN_MOTION": 1.70474233, "ECCENTRICITY": 0.00021356, "INCLINATION": 55.3776, "RA_OF_ASC_NODE": 106.5086, "ARG_OF_PERICENTER": 326.0085, "MEAN_ANOMALY": 33.9336, "EPHEMERIS_TYPE": 0, "CLASSIFICATION_TYPE": "U", "NORAD_CAT_ID": 41859, "ELEMENT_SET_NO": 999, "REV_AT_EPOCH": 5606, "BSTAR": 0, "MEAN_MOTION_DOT": 2e-07, "MEAN_MOTION_DDOT": 0}, "tle": {"line1": "1 41859U 16069A   25337.41311890  .00000020  00000+0  00000+0 0  9996", "line2": "2 41859  55.3776 106.5086 0002135 326.0085  33.9336  1.70474233 56068"}}, "geometry": {"type": "Point", "coordinates": [-64.23310043794307, -13.178146453364537]}}, {"type": "Feature", "properties": {"norad_id": 41860, "name": "GSAT0212 (GALILEO 16)", "group": "gnss", "lat": -52.32408515185018, "lon": 43.05403592421204, "alt_km": 23229.938589339756, "timestamp": "2025-12-04T07:39:36.382930+00:00", "meta": {"OBJECT_NAME": "GSAT0212 (GALILEO 16)", "OBJECT_ID": "2016-069B", "EPOCH": "2025-12-02T16:19:30.905184", "MEAN_MOTION": 1.70474418, "ECCENTRICITY": 0.00022458, "INCLINATION": 55.3738, "RA_OF_ASC_NODE": 106.5243, "ARG_OF_PERICENTER": 34.2432, "MEAN_ANOMALY": 325.7313, "EPHEMERIS_TYPE": 0, "CLASSIFICATION_TYPE": "U", "NORAD_CAT_ID": 41860, "ELEMENT_SET_NO": 999, "REV_AT_EPOCH": 5630, "BSTAR": 0, "MEAN_MOTION_DOT": 2.7e-07, "MEAN_MOTION_DDOT": 0}, "tle": {"line1": "1 41860U 16069B   25336.68021881  .00000027  00000+0  00000+0 0  9991", "line2": "2 41860  55.3738 106.5243 0002245  34.2432 325.7313  1.70474418 56308"}}, "geometry": {"type": "Point", "coordinates": [43.05403592421204, -52.32408515185018]}}, {"type": "Feature", "properties": {"norad_id": 41861, "name": "GSAT0213 (GALILEO 17)", "group": "gnss", "lat": 45.620620939421315, "lon": 151.34261659425152, "alt_km": 23221.047651239664, "timestamp": "2025-12-04T07:39:36.382940+00:00", "meta": {"OBJECT_NAME": "GSAT0213 (GALILEO 17)", "OBJECT_ID": "2016-069C", "EPOCH": "2025-12-01T20:59:28.954752", "MEAN_MOTION": 1.70474717, "ECCENTRICITY": 0.00020626, "INCLINATION": 55.3756, "RA_OF_ASC_NODE": 106.5542, "ARG_OF_PERICENTER": 284.0381, "MEAN_ANOMALY": 75.9044, "EPHEMERIS_TYPE": 0, "CLASSIFICATION_TYPE": "U", "NORAD_CAT_ID": 41861, "ELEMENT_SET_NO": 999, "REV_AT_EPOCH": 5615, "BSTAR": 0, "MEAN_MOTION_DOT": 3.5e-07, "MEAN_MOTION_DDOT": 0}, "tle": {"line1": "1 41861U 16069C   25335.87464068  .00000035  00000+0  00000+0 0  9999", "line2": "2 41861  55.3756 106.5542 0002062 284.0381  75.9044  1.70474717 56156"}}, "geometry": {"type": "Point", "coordinates": [151.34261659425152, 45.620620939421315]}}, {"type": "Feature", "properties": {"norad_id": 41862, "name": "GSAT0214 (GALILEO 18)", "group": "gnss", "lat": -23.76193215799302, "lon": 88.76177533489944, "alt_km": 23222.747982612884, "timestamp": "2025-12-04T07:39:36.382950+00:00", "meta": {"OBJECT_NAME": "GSAT0214 (GALILEO 18)", "OBJECT_ID": "2016-069D", "EPOCH": "2025-12-02T14:34:22.700352", "MEAN_MOTION": 1.70474512, "ECCENTRICITY": 0.0001109, "INCLINATION": 55.3745, "RA_OF_ASC_NODE": 106.5268, "ARG_OF_PERICENTER": 291.2976, "MEAN_ANOMALY": 68.6511, "EPHEMERIS_TYPE": 0, "CLASSIFICATION_TYPE": "U", "NORAD_CAT_ID": 41862, "ELEMENT_SET_NO": 999, "REV_AT_EPOCH": 5629, "BSTAR": 0, "MEAN_MOTION_DOT": 2.8e-07, "MEAN_MOTION_DDOT": 0}, "tle": {"line1": "1 41862U 16069D   25336.60720718  .00000028  00000+0  00000+0 0  9991", "line2": "2 41862  55.3745 106.5268 0001109 291.2976  68.6511  1.70474512 56297"}}, "geometry": {"type": "Point", "coordinates": [88.76177533489944, -23.76193215799302]}}, {"type": "Feature", "properties": {"norad_id": 42709, "name": "SES-15 (WAAS/PRN 133)", "group": "gnss", "lat": 0.044953530934211554, "lon": 59.095340880757675, "alt_km": 35788.90951178068, "timestamp": "2025-12-04T07:39:36.382961+00:00", "meta": {"OBJECT_NAME": "SES-15 (WAAS/PRN 133)", "OBJECT_ID": "2017-026A", "EPOCH": "2025-12-03T16:34:01.045632", "MEAN_MOTION": 1.0026701, "ECCENTRICITY": 3.801e-05, "INCLINATION": 0.0204, "RA_OF_ASC_NODE": 341.0859, "ARG_OF_PERICENTER": 274.5898, "MEAN_ANOMALY": 296.434, "EPHEMERIS_TYPE": 0, "CLASSIFICATION_TYPE": "U", "NORAD_CAT_ID": 42709, "ELEMENT_SET_NO": 999, "REV_AT_EPOCH": 547, "BSTAR": 0, "MEAN_MOTION_DOT": 7.8e-07, "MEAN_MOTION_DDOT": 0}, "tle": {"line1": "1 42709U 17026A   25337.69028988  .00000078  00000+0  00000+0 0  9991", "line2": "2 42709   0.0204 341.0859 0000380 274.5898 296.4340  1.00267010  5475"}}, "geometry": {"type": "Point", "coordinates": [59.095340880757675, 0.044953530934211554]}}, {"type": "Feature", "properties": {"norad_id": 42738, "name": "QZS-2 (QZSS/PRN 194)", "group": "gnss", "lat": 39.55129414549919, "lon": -31.150396683902745, "alt_km": 38951.55757776714, "timestamp": "2025-12-04T07:39:36.382974+00:00", "meta": {"OBJECT_NAME": "QZS-2 (QZSS/PRN 194)", "OBJECT_ID": "2017-028A", "EPOCH": "2025-12-03T14:23:28.548672", "MEAN_MOTION": 1.00285452, "ECCENTRICITY": 0.0759039, "INCLINATION": 39.729, "RA_OF_ASC_NODE": 246.0173, "ARG_OF_PERICENTER": 269.3809, "MEAN_ANOMALY": 274.5986, "EPHEMERIS_TYPE": 0, "CLASSIFICATION_TYPE": "U", "NORAD_CAT_ID": 42738, "ELEMENT_SET_NO": 999, "REV_AT_EPOCH": 566, "BSTAR": 0, "MEAN_MOTION_DOT": -1.52e-06, "MEAN_MOTION_DDOT": 0}, "tle": {"line1": "1 42738U 17028A   25337.59963598 -.00000152  00000+0  00000+0 0  9993", "line2": "2 42738  39.7290 246.0173 0759039 269.3809 274.5986  1.00285452  5664"}}, "geometry": {"type": "Point", "coordinates": [-31.150396683902745, 39.55129414549919]}}]}